MEAN_MOTION;ECCENTRICITY;INCLINATION;RA_OF_ASC_NODE;ARG_OF_PERICENTER;MEAN_ANOMALY;BSTAR;MEAN_MOTION_DOT;MEAN_MOTION_DDOT;TYPE
14.54768949;0.0001615;47.0009;235.7153;179.6493;180.4393;1.7168E-5;-9.1E-7;0;Orbcomm
14.5476919;0.0001686;47.001;230.2309;184.9601;175.1267;1.8251E-5;-8.7E-7;0;Orbcomm
14.54769437;0.000176;47.0011;225.3917;189.6582;170.4268;1.8832E-5;-8.4E-7;0;Orbcomm
14.54769437;0.000176;47.0011;225.3917;189.6582;170.4268;1.8832E-5;-8.4E-7;0;Orbcomm
14.54769551;0.0001796;47.0012;222.8107;192.2852;167.7989;1.8544E-5;-8.5E-7;0;Orbcomm
14.54769762;0.0001858;47.0012;218.2941;196.3772;163.7052;1.9134E-5;-8.3E-7;0;Orbcomm
14.54725456;0.0002067;46.9998;213.1309;191.3585;168.7252;1.8373E-5;-8.6E-7;0;Orbcomm
14.54720143;0.0001753;47.0008;207.6487;209.0119;151.0668;1.9478E-5;-8.1E-7;0;Orbcomm
14.54720771;0.0001901;47.0008;204.0995;210.6138;149.4635;2.0578E-5;-7.7E-7;0;Orbcomm
14.54720908;0.0001934;47.0009;200.8734;212.9182;147.1582;2.7371E-5;-4.7E-7;0;Orbcomm
14.54715088;0.0001996;47.0014;194.422;221.4458;138.6275;2.7149E-5;-4.8E-7;0;Orbcomm
14.54715147;0.0002005;47.0014;193.1317;222.3712;137.7018;2.7703E-5;-4.6E-7;0;Orbcomm
14.54715283;0.000205;47.0015;189.5831;224.9716;135.1002;2.9792E-5;-3.7E-7;0;Orbcomm
14.54715495;0.0002059;47.0015;188.2927;225.929;134.1425;4.6319E-5;3.5E-7;0;Orbcomm
14.54715604;0.00021;47.0015;184.7442;228.4363;131.6341;3.4956E-5;-1.5E-7;0;Orbcomm
14.54715915;0.0002145;47.0015;180.2279;231.8433;128.2258;3.569E-5;-1.1E-7;0;Orbcomm
14.5471618;0.0002187;47.0015;176.0342;235.0195;125.0484;3.466E-5;-1.6E-7;0;Orbcomm
14.54716243;0.000219;47.0015;175.3891;235.4867;124.5811;3.5663E-5;-1.2E-7;0;Orbcomm
14.54721457;0.0002224;47.0017;170.8734;236.5865;123.4807;3.3545E-5;-2.1E-7;0;Orbcomm
14.54723825;0.000229;47.0014;166.034;241.5778;118.4875;5.4184E-5;6.9E-7;0;Orbcomm
14.54723905;0.0002292;47.0014;165.3889;242.4604;117.6048;5.6071E-5;7.7E-7;0;Orbcomm
14.54724063;0.0002325;47.0012;160.5499;245.9098;114.1543;3.3513E-5;-2.1E-7;0;Orbcomm
14.54724205;0.0002354;47.0011;156.6787;248.6548;111.4085;2.9636E-5;-3.8E-7;0;Orbcomm
14.54724342;0.0002376;47.0011;153.4526;251.0726;108.99;2.8239E-5;-4.4E-7;0;Orbcomm
14.54724481;0.0002374;47.0011;151.8397;252.2098;107.8527;3.1324E-5;-3.0E-7;0;Orbcomm
14.54724859;0.0002408;47.001;145.3877;256.9803;103.0813;3.3002E-5;-2.3E-7;0;Orbcomm
14.54724941;0.0002414;47.001;144.0972;257.6632;102.3982;3.3683E-5;-2.0E-7;0;Orbcomm
14.54725035;0.0002417;47.001;142.4843;259.0438;101.0174;3.4224E-5;-1.8E-7;0;Orbcomm
14.54725277;0.000243;47.001;138.2904;261.9388;98.122;3.3647E-5;-2.0E-7;0;Orbcomm
14.54725423;0.000244;47.001;136.0322;263.6753;96.3853;3.3463E-5;-2.1E-7;0;Orbcomm
14.54725548;0.0002441;47.001;133.1289;265.8869;94.1736;3.1584E-5;-2.9E-7;0;Orbcomm
14.54725625;0.0002452;47.001;131.5159;267.2313;92.829;3.0486E-5;-3.4E-7;0;Orbcomm
14.54725662;0.0002455;47.001;130.548;267.9236;92.1367;3.0135E-5;-3.5E-7;0;Orbcomm
14.54725914;0.0002456;47.0009;125.3863;271.3329;88.7274;2.6758E-5;-5.0E-7;0;Orbcomm
14.54725975;0.0002453;47.0009;123.7734;272.5813;87.4791;2.5837E-5;-5.4E-7;0;Orbcomm
14.54726212;0.0002454;47.0009;119.2569;275.8151;84.2453;2.5303E-5;-5.6E-7;0;Orbcomm
14.54726435;0.000245;47.0009;114.4177;279.4553;80.6054;2.429E-5;-6.1E-7;0;Orbcomm
14.54726651;0.0002442;47.0009;109.9012;282.9469;77.1142;2.4521E-5;-6.0E-7;0;Orbcomm
14.54726765;0.0002436;47.0009;106.9976;284.9665;75.0949;2.3569E-5;-6.4E-7;0;Orbcomm
14.54726929;0.0002428;47.001;103.7716;287.295;72.7668;2.4412E-5;-6.0E-7;0;Orbcomm
14.54727069;0.000241;47.0011;100.5454;289.4793;70.5831;2.466E-5;-5.9E-7;0;Orbcomm
14.54727241;0.0002388;47.0012;96.0289;292.793;67.2702;2.344E-5;-6.4E-7;0;Orbcomm
14.54727402;0.0002373;47.0014;92.4802;295.0956;64.9682;2.333E-5;-6.5E-7;0;Orbcomm
14.54727451;0.0002365;47.0014;91.5124;295.9786;64.0854;2.3695E-5;-6.3E-7;0;Orbcomm
14.54727629;0.0002339;47.0016;86.9959;299.127;60.938;2.2193E-5;-7.0E-7;0;Orbcomm
14.54727738;0.0002328;47.0017;84.4151;301.1976;58.868;2.1529E-5;-7.3E-7;0;Orbcomm
14.54727981;0.0002289;47.0019;79.5762;305.2217;54.8453;2.2034E-5;-7.0E-7;0;Orbcomm
14.54728081;0.0002264;47.0019;77.3181;307.0383;53.0294;2.1594E-5;-7.2E-7;0;Orbcomm
14.54728201;0.0002237;47.002;74.4146;309.2269;50.8416;2.0847E-5;-7.6E-7;0;Orbcomm
14.5472836;0.0002214;47.0021;71.1887;311.7359;48.3335;2.0925E-5;-7.5E-7;0;Orbcomm
14.54728446;0.0002191;47.0022;69.253;313.1337;46.9364;2.0772E-5;-7.6E-7;0;Orbcomm
14.54728595;0.000216;47.0023;65.7044;315.9636;44.1076;2.097E-5;-7.5E-7;0;Orbcomm
14.54728663;0.0002147;47.0024;64.4141;316.8898;43.1817;2.1288E-5;-7.4E-7;0;Orbcomm
14.54728819;0.0002108;47.0025;60.8654;319.7143;40.3584;2.1654E-5;-7.2E-7;0;Orbcomm
14.54728916;0.0002096;47.0025;59.5751;320.5958;39.4773;2.3174E-5;-6.5E-7;0;Orbcomm
14.54728968;0.0002086;47.0025;58.9299;321.2864;38.7871;2.3778E-5;-6.3E-7;0;Orbcomm
14.54729221;0.0002041;47.0027;54.4136;325.0401;35.0349;2.5665E-5;-5.5E-7;0;Orbcomm
14.54729394;0.0002008;47.0029;51.5102;327.0946;32.9813;2.6686E-5;-5.0E-7;0;Orbcomm
14.54729524;0.0001989;47.0029;49.8973;328.7582;31.3183;2.9385E-5;-3.9E-7;0;Orbcomm
14.54729798;0.0001935;47.0031;45.381;332.5669;27.5113;3.0923E-5;-3.2E-7;0;Orbcomm
14.5472983;0.0001929;47.0031;45.0584;332.9789;27.0995;3.1283E-5;-3.0E-7;0;Orbcomm
14.5473011;0.000187;47.0032;40.5422;337.1296;22.9504;3.2048E-5;-2.7E-7;0;Orbcomm
14.54730585;0.0001764;47.0034;32.8002;344.0168;16.066;3.2125E-5;-2.7E-7;0;Orbcomm
14.54730701;0.0001751;47.0034;31.5099;345.1573;14.9259;3.3411E-5;-2.1E-7;0;Orbcomm
14.54730926;0.0001696;47.0034;27.9615;348.5995;11.485;3.2952E-5;-2.3E-7;0;Orbcomm
14.54731018;0.0001683;47.0034;26.6712;349.8319;10.2531;3.3714E-5;-2.0E-7;0;Orbcomm
14.54731214;0.000164;47.0034;23.4453;352.781;7.305;3.3312E-5;-2.2E-7;0;Orbcomm
14.54731473;0.0001579;47.0033;19.2516;357.0351;3.0523;3.3792E-5;-2.0E-7;0;Orbcomm
14.54731819;0.0001509;47.0033;14.4128;2.001;358.088;3.5123E-5;-1.4E-7;0;Orbcomm
14.54731904;0.0001493;47.0033;13.1225;3.4428;356.6466;3.5985E-5;-1.0E-7;0;Orbcomm
14.54732128;0.000145;47.0033;9.8966;6.769;353.3214;3.641E-5;-8.0E-8;0;Orbcomm
14.54732221;0.0001432;47.0032;8.2837;8.6715;351.4193;3.6707E-5;-7.0E-8;0;Orbcomm
14.54732328;0.0001408;47.0033;6.3481;10.56;349.5314;3.6307E-5;-9.0E-8;0;Orbcomm
14.54732408;0.0001382;47.0032;5.0577;12.3314;347.7604;3.5926E-5;-1.0E-7;0;Orbcomm
14.54732535;0.0001364;47.0032;3.4448;14.5612;345.5311;3.6931E-5;-6.0E-8;0;Orbcomm
14.54732678;0.0001332;47.0032;1.1866;17.097;342.9959;3.673E-5;-7.0E-8;0;Orbcomm
14.54732757;0.0001311;47.0032;359.8963;18.9593;341.134;3.6514E-5;-8.0E-8;0;Orbcomm
14.54732927;0.0001288;47.0032;357.3156;21.8956;338.1983;3.63E-5;-9.0E-8;0;Orbcomm
14.54733003;0.0001254;47.0031;355.38;24.5987;335.4957;3.4551E-5;-1.6E-7;0;Orbcomm
14.54733255;0.0001189;47.0031;350.8637;30.9442;329.1512;3.3337E-5;-2.1E-7;0;Orbcomm
14.54733261;0.0001185;47.003;350.5411;31.4252;328.6702;3.3066E-5;-2.3E-7;0;Orbcomm
14.54737164;0.0001142;47.0031;345.7025;38.3105;321.786;3.3592E-5;-2.0E-7;0;Orbcomm
14.54737271;0.0001144;47.003;345.0573;39.5308;320.5659;3.3541E-5;-2.1E-7;0;Orbcomm
14.54737596;0.0001081;47.0029;340.5408;46.9236;313.1738;3.8887E-5;3.0E-8;0;Orbcomm
14.54737748;0.0001043;47.0027;335.7018;55.1526;304.9457;2.7889E-5;-4.5E-7;0;Orbcomm
14.54737919;0.0001014;47.0026;331.8306;62.3484;297.7503;2.6381E-5;-5.1E-7;0;Orbcomm
14.54738094;9.93E-5;47.0026;328.9272;67.3152;292.7837;2.8127E-5;-4.4E-7;0;Orbcomm
14.54738271;9.94E-5;47.0025;326.9916;70.5963;289.5029;3.1318E-5;-3.0E-7;0;Orbcomm
14.54738414;9.81E-5;47.0025;325.0559;74.0971;286.0021;3.2393E-5;-2.5E-7;0;Orbcomm
14.54738434;9.73E-5;47.0024;322.7975;78.0977;282.0016;2.9392E-5;-3.8E-7;0;Orbcomm
14.54738458;9.74E-5;47.0024;322.4749;78.6478;281.4516;2.9749E-5;-3.7E-7;0;Orbcomm
14.54738712;9.69E-5;47.0024;317.9585;86.7788;273.3207;2.9662E-5;-3.7E-7;0;Orbcomm
14.5473873;9.7E-5;47.0023;317.6359;87.3015;272.798;2.9742E-5;-3.7E-7;0;Orbcomm
14.54739034;9.7E-5;47.0023;313.1194;95.2996;264.7999;3.1559E-5;-2.9E-7;0;Orbcomm
14.54739052;9.72E-5;47.0023;312.7968;95.7914;264.3081;3.1437E-5;-3.0E-7;0;Orbcomm
14.54739299;9.82E-5;47.0023;308.2803;103.7916;256.3078;2.9935E-5;-3.6E-7;0;Orbcomm
14.54739318;9.82E-5;47.0023;307.9577;104.283;255.8163;2.9683E-5;-3.7E-7;0;Orbcomm
14.54739535;0.0001;47.0023;303.7639;111.5695;248.5296;2.7843E-5;-4.5E-7;0;Orbcomm
14.54739741;0.000101;47.0022;300.8605;116.5123;243.5865;2.9096E-5;-4.0E-7;0;Orbcomm
14.54739768;0.0001027;47.0022;298.925;119.6292;240.4694;2.5857E-5;-5.4E-7;0;Orbcomm
14.54739968;0.0001061;47.0021;294.4086;127.3301;232.768;2.4154E-5;-6.1E-7;0;Orbcomm
14.54740146;0.0001098;47.0021;289.8921;134.4114;225.686;2.2533E-5;-6.8E-7;0;Orbcomm
14.54740165;0.0001101;47.0021;289.5695;134.8683;225.2291;2.2614E-5;-6.8E-7;0;Orbcomm
14.54740317;0.0001135;47.0021;286.3434;140.1233;219.9735;2.2773E-5;-6.7E-7;0;Orbcomm
14.54740361;0.0001149;47.0021;285.0531;141.9173;218.1792;2.2593E-5;-6.8E-7;0;Orbcomm
14.54740473;0.0001178;47.002;282.1496;146.4211;213.6748;2.2443E-5;-6.8E-7;0;Orbcomm
14.5474056;0.0001203;47.002;280.2141;149.0351;211.0605;2.263E-5;-6.8E-7;0;Orbcomm
14.54740672;0.0001238;47.002;277.3106;153.2731;206.8217;2.2208E-5;-7.0E-7;0;Orbcomm
14.5474068;0.0001243;47.0021;276.988;153.6905;206.4043;2.2181E-5;-7.0E-7;0;Orbcomm
14.54740745;0.0001257;47.002;275.6976;155.0615;205.033;2.3076E-5;-6.6E-7;0;Orbcomm
14.54740907;0.0001308;47.0021;271.5038;160.3965;199.6969;2.3322E-5;-6.5E-7;0;Orbcomm
14.54740926;0.0001311;47.002;271.1812;160.6851;199.4083;2.3487E-5;-6.4E-7;0;Orbcomm
14.54741125;0.0001372;47.002;266.3422;166.4917;193.6004;2.3151E-5;-6.5E-7;0;Orbcomm
14.54741305;0.0001432;47.002;261.8259;171.5724;188.5184;2.2154E-5;-7.0E-7;0;Orbcomm
14.54741431;0.000148;47.002;258.5999;175.4346;184.6552;2.1066E-5;-7.4E-7;0;Orbcomm
14.54741494;0.0001494;47.002;257.3095;176.5309;183.5585;2.165E-5;-7.2E-7;0;Orbcomm
14.54741649;0.0001549;47.0019;253.7609;180.5466;179.5417;2.1228E-5;-7.4E-7;0;Orbcomm
14.54741724;0.000156;47.0019;252.4706;181.8351;178.2527;2.1718E-5;-7.2E-7;0;Orbcomm
14.54741902;0.0001618;47.0018;247.9543;186.3275;173.7589;2.0862E-5;-7.5E-7;0;Orbcomm
